{
    "links": {
        "self": "http://www.neowsapp.com/rest/v1/neo/3560129?api_key=iIulBulltgU6a56xZRHN4H3l9WmuAYTsLGpBGhQ2"
    },
    "id": "3560129",
    "neo_reference_id": "3560129",
    "name": "(2011 FV6)",
    "designation": "2011 FV6",
    "nasa_jpl_url": "http://ssd.jpl.nasa.gov/sbdb.cgi?sstr=3560129",
    "absolute_magnitude_h": 24.9,
    "estimated_diameter": {
        "kilometers": {
            "estimated_diameter_min": 0.0278326768,
            "estimated_diameter_max": 0.0622357573
        },
        "meters": {
            "estimated_diameter_min": 27.8326768072,
            "estimated_diameter_max": 62.2357573367
        },
        "miles": {
            "estimated_diameter_min": 0.0172944182,
            "estimated_diameter_max": 0.0386714948
        },
        "feet": {
            "estimated_diameter_min": 91.3145593761,
            "estimated_diameter_max": 204.1855621004
        }
    },
    "is_potentially_hazardous_asteroid": false,
    "close_approach_data": [
        {
            "close_approach_date": "2011-03-21",
            "close_approach_date_full": "2011-Mar-21 13:53",
            "epoch_date_close_approach": 1300715580000,
            "relative_velocity": {
                "kilometers_per_second": "22.5125632451",
                "kilometers_per_hour": "81045.2276825278",
                "miles_per_hour": "50358.3527230684"
            },
            "miss_distance": {
                "astronomical": "0.044554802",
                "lunar": "17.331817978",
                "kilometers": "6665303.47747174",
                "miles": "4141627.531080412"
            },
            "orbiting_body": "Earth"
        },
        {
            "close_approach_date": "2108-08-04",
            "close_approach_date_full": "2108-Aug-04 19:19",
            "epoch_date_close_approach": 4373551140000,
            "relative_velocity": {
                "kilometers_per_second": "22.7456178489",
                "kilometers_per_hour": "81884.2242558978",
                "miles_per_hour": "50879.6725661161"
            },
            "miss_distance": {
                "astronomical": "0.0425874368",
                "lunar": "16.5665129152",
                "kilometers": "6370989.834039616",
                "miles": "3958749.5132180608"
            },
            "orbiting_body": "Venus"
        },
        {
            "close_approach_date": "2198-03-25",
            "close_approach_date_full": "2198-Mar-25 14:43",
            "epoch_date_close_approach": 7202270580000,
            "relative_velocity": {
                "kilometers_per_second": "23.3743196816",
                "kilometers_per_hour": "84147.5508537856",
                "miles_per_hour": "52286.0156957869"
            },
            "miss_distance": {
                "astronomical": "0.0099040385",
                "lunar": "3.8526709765",
                "kilometers": "1481623.063997995",
                "miles": "920637.881422531"
            },
            "orbiting_body": "Earth"
        },
        {
            "close_approach_date": "2198-03-25",
            "close_approach_date_full": "2198-Mar-25 18:29",
            "epoch_date_close_approach": 7202284140000,
            "relative_velocity": {
                "kilometers_per_second": "24.0861933613",
                "kilometers_per_hour": "86710.2961008312",
                "miles_per_hour": "53878.4059299859"
            },
            "miss_distance": {
                "astronomical": "0.0083330775",
                "lunar": "3.2415671475",
                "kilometers": "1246610.644544925",
                "miles": "774607.935472965"
            },
            "orbiting_body": "Moon"
        }
    ],
    "orbital_data": {
        "orbit_id": "6",
        "orbit_determination_date": "2017-04-06 08:54:01",
        "first_observation_date": "2011-03-26",
        "last_observation_date": "2011-03-29",
        "data_arc_in_days": 3,
        "observations_used": 17,
        "orbit_uncertainty": "9",
        "minimum_orbit_intersection": ".0217083",
        "jupiter_tisserand_invariant": "3.480",
        "epoch_osculation": "2455648.5",
        "eccentricity": ".751606156470404",
        "semi_major_axis": "1.942576876387082",
        "inclination": "6.188592780549442",
        "ascending_node_longitude": "13.94491436093887",
        "orbital_period": "988.9304491793715",
        "perihelion_distance": ".4825241366775043",
        "perihelion_argument": "66.6050364905641",
        "aphelion_distance": "3.40262961609666",
        "perihelion_time": "2455595.465184826992",
        "mean_anomaly": "19.30624492159801",
        "mean_motion": ".3640296446516872",
        "equinox": "J2000",
        "orbit_class": {
            "orbit_class_type": "APO",
            "orbit_class_description": "Near-Earth asteroid orbits which cross the Earth’s orbit similar to that of 1862 Apollo",
            "orbit_class_range": "a (semi-major axis) > 1.0 AU; q (perihelion) < 1.017 AU"
        }
    },
    "is_sentry_object": false
}